ONEWEB-0176             
1 48210U 21031A   26013.12707151  .00000013  00000+0  17066-5 0  9996
2 48210  87.9021 320.6002 0001619  78.0366 282.0945 13.14503922227948
ONEWEB-0184             
1 48211U 21031B   26013.25234172 -.00000164  00000+0 -47663-3 0  9992
2 48211  87.9038 320.5595 0001087  56.4328 303.6906 13.14503104227938
ONEWEB-0179             
1 48212U 21031C   26013.07075654  .00000145  00000+0  35619-3 0  9996
2 48212  87.9027 320.6017 0001749  87.3001 272.8329 13.14504489227958
ONEWEB-0180             
1 48213U 21031D   26013.25551617 -.00000158  00000+0 -46193-3 0  9990
2 48213  87.9034 320.5642 0001505  85.6174 274.5128 13.14502946227864
ONEWEB-0218             
1 48214U 21031E   26013.12545649 -.00000250  00000+0 -70801-3 0  9991
2 48214  87.9028 320.5906 0000867  69.4449 290.6773 13.14502308228000
ONEWEB-0209             
1 48215U 21031F   26013.26661693 -.00000103  00000+0 -31133-3 0  9997
2 48215  87.9017 320.5954 0001694  86.1598 273.9726 13.14503764228023
ONEWEB-0198             
1 48216U 21031G   26013.25089657 -.00000066  00000+0 -21361-3 0  9991
2 48216  87.9023 320.5955 0001351  86.9222 273.2062 13.14502290228135
ONEWEB-0189             
1 48217U 21031H   26013.26344255 -.00000131  00000+0 -38685-3 0  9991
2 48217  87.9028 320.5683 0001389  83.9933 276.1355 13.14502828227870
